MALLIGYONG-1            
1 58400U 23179A   24133.61702969  .00011599  00000+0  50324-3 0  9993
2 58400  97.4077  21.0081 0010192  38.3684 321.8275 15.22452875 26311
